#dV2018 12 31 22  0  0.00000000    1682       CTS   FIT  GFZ
## 2034 165600.00000000    30.00000000 58483 0.9166666666667
+    1   L64  0  0  0  0  0  0  0  0  0  0  0  0  0  0  0  0
+          0  0  0  0  0  0  0  0  0  0  0  0  0  0  0  0  0
+          0  0  0  0  0  0  0  0  0  0  0  0  0  0  0  0  0
+          0  0  0  0  0  0  0  0  0  0  0  0  0  0  0  0  0
+          0  0  0  0  0  0  0  0  0  0  0  0  0  0  0  0  0
++         0  0  0  0  0  0  0  0  0  0  0  0  0  0  0  0  0
++         0  0  0  0  0  0  0  0  0  0  0  0  0  0  0  0  0
++         0  0  0  0  0  0  0  0  0  0  0  0  0  0  0  0  0
++         0  0  0  0  0  0  0  0  0  0  0  0  0  0  0  0  0
++         0  0  0  0  0  0  0  0  0  0  0  0  0  0  0  0  0
%c L  cc GPS ccc cccc cccc cccc cccc ccccc ccccc ccccc ccccc
%c cc cc ccc ccc cccc cccc cccc cccc ccccc ccccc ccccc ccccc
%f  0.0000000  0.000000000  0.00000000000  0.000000000000000
%f  0.0000000  0.000000000  0.00000000000  0.000000000000000
%i    0    0    0    0      0      0      0      0         0
%i    0    0    0    0      0      0      0      0         0
/* CCCCCCCCCCCCCCCCCCCCCCCCCCCCCCCCCCCCCCCCCCCCCCCCCCCCCCCCCCCCCCCCCCCCCCCCCCCCC
/* C                             GFZ RSO-ORBIT                                 C
/* C DOI: https://doi.org/10.5880/GFZ_ORBIT/RSO/L64_G_v02                      C
/* C                                                                           C
/* C DORIS        RMS: not applicable                                          C
/* C GNSS-E Code  RMS: not applicable                                          C
/* C GNSS-E Phase RMS: not applicable                                          C
/* C GNSS-G Code  RMS:  47.750 [cm]   Obs.acc.:     11901 Obs.eli.:       900  C
/* C GNSS-G Phase RMS:   3.400 [mm]   Obs.acc.:     11901 Obs.eli.:       900  C
/* C SLR          RMS:   1.209 [cm]   Obs.acc.:       103 Obs.eli.:         0  C
/* C                                                                           C
/* CCCCCCCCCCCCCCCCCCCCCCCCCCCCCCCCCCCCCCCCCCCCCCCCCCCCCCCCCCCCCCCCCCCCCCCCCCCCC
*  2019  1  1  5 39  0.00000000
PL64   3519.794797   1667.128374   5653.821525   2508.418086
VL64 -56590.404252 -27346.632332  43020.463279 999999.999999
*  2019  1  1  5 39 30.00000000
PL64   3347.938539   1584.560935   5779.727042   2508.640922
VL64 -57970.198434 -27692.281879  40908.771342 999999.999999
*  2019  1  1  5 40  0.00000000
PL64   3172.035851   1501.011003   5899.228663   2508.863834
VL64 -59287.749510 -28001.612191  38751.591098 999999.999999
*  2019  1  1  5 40 30.00000000
PL64   2992.275903   1416.587650   6012.193478   2509.086707
VL64 -60541.441755 -28274.556258  36551.301362 999999.999999
*  2019  1  1  5 41  0.00000000
PL64   2808.852609   1331.400074   6118.495785   2509.309577
VL64 -61729.728321 -28511.093564  34310.327181 999999.999999
*  2019  1  1  5 41 30.00000000
PL64   2621.964417   1245.557471   6218.017225   2509.532466
VL64 -62851.133100 -28711.249857  32031.138286 999999.999999
*  2019  1  1  5 42  0.00000000
PL64   2431.814098   1159.168886   6310.646910   2509.755649
VL64 -63904.252812 -28875.096691  29716.246339 999999.999999
*  2019  1  1  5 42 30.00000000
PL64   2238.608518   1072.343085   6396.281550   2509.978524
VL64 -64887.758149 -29002.750484  27368.203029 999999.999999
*  2019  1  1  5 43  0.00000000
PL64   2042.558419    985.188416   6474.825567   2510.201424
VL64 -65800.396457 -29094.372597  24989.598829 999999.999999
*  2019  1  1  5 43 30.00000000
PL64   1843.878181    897.812676   6546.191206   2510.424337
VL64 -66640.995152 -29150.169497  22583.058590 999999.999999
*  2019  1  1  5 44  0.00000000
PL64   1642.785582    810.322976   6610.298635   2510.647232
VL64 -67408.462225 -29170.391488  20151.236315 999999.999999
*  2019  1  1  5 44 30.00000000
PL64   1439.501554    722.825611   6667.076023   2510.870138
VL64 -68101.785791 -29155.331565  17696.813379 999999.999999
*  2019  1  1  5 45  0.00000000
PL64   1234.249943    635.425934   6716.459621   2511.093063
VL64 -68720.035881 -29105.325430  15222.496815 999999.999999
*  2019  1  1  5 45 30.00000000
PL64   1027.257262    548.228228   6758.393838   2511.315968
VL64 -69262.365489 -29020.750906  12731.015752 999999.999999
*  2019  1  1  5 46  0.00000000
PL64    818.752437    461.335579   6792.831300   2511.538862
VL64 -69728.010939 -28902.027151  10225.119493 999999.999999
*  2019  1  1  5 46 30.00000000
PL64    608.966562    374.849755   6819.732907   2511.761779
VL64 -70116.294048 -28749.614756   7707.574945 999999.999999
*  2019  1  1  5 47  0.00000000
PL64    398.132630    288.871080   6839.067881   2511.984692
VL64 -70426.623279 -28564.014477   5181.162161 999999.999999
*  2019  1  1  5 47 30.00000000
PL64    186.485283    203.498318   6850.813802   2512.207788
VL64 -70658.493967 -28345.765597   2648.671860 999999.999999
*  2019  1  1  5 48  0.00000000
PL64    -25.739456    118.828558   6854.956633   2512.430724
VL64 -70811.489702 -28095.445641    112.902664 999999.999999
*  2019  1  1  5 48 30.00000000
PL64   -238.304449     34.957102   6851.490741   2512.653556
VL64 -70885.282778 -27813.668960  -2423.343089 999999.999999
*  2019  1  1  5 49  0.00000000
PL64   -450.971708    -48.022647   6840.418902   2512.876524
VL64 -70879.633749 -27501.084696  -4957.261748 999999.999999
*  2019  1  1  5 49 30.00000000
PL64   -663.502656   -130.019281   6821.752301   2513.099449
VL64 -70794.392198 -27158.376015  -7486.049659 999999.999999
*  2019  1  1  5 50  0.00000000
PL64   -875.658406   -210.943494   6795.510535   2513.322215
VL64 -70629.498477 -26786.259937 -10006.906138 999999.999999
*  2019  1  1  5 50 30.00000000
PL64  -1087.200023   -290.708182   6761.721589   2513.545073
VL64 -70384.983980 -26385.486590 -12517.038311 999999.999999
*  2019  1  1  5 51  0.00000000
PL64  -1297.888806   -369.228537   6720.421812   2513.767924
VL64 -70060.969574 -25956.837544 -15013.664502 999999.999999
*  2019  1  1  5 51 30.00000000
PL64  -1507.486548   -446.422142   6671.655878   2513.990656
VL64 -69657.665451 -25501.124245 -17494.015261 999999.999999
*  2019  1  1  5 52  0.00000000
PL64  -1715.755808   -522.209058   6615.476751   2514.213349
VL64 -69175.372807 -25019.187008 -19955.335858 999999.999999
*  2019  1  1  5 52 30.00000000
PL64  -1922.460186   -596.511908   6551.945630   2514.436017
VL64 -68614.483959 -24511.894086 -22394.890657 999999.999999
*  2019  1  1  5 53  0.00000000
PL64  -2127.364594   -669.255960   6481.131887   2514.658694
VL64 -67975.481098 -23980.140083 -24809.966196 999999.999999
*  2019  1  1  5 53 30.00000000
PL64  -2330.235527   -740.369205   6403.113002   2514.881508
VL64 -67258.936028 -23424.843882 -27197.873395 999999.999999
*  2019  1  1  5 54  0.00000000
PL64  -2530.841327   -809.782422   6317.974479   2515.104262
VL64 -66465.510388 -22846.946677 -29555.949897 999999.999999
*  2019  1  1  5 54 30.00000000
PL64  -2728.952458   -877.429246   6225.809767   2515.326999
VL64 -65595.956070 -22247.410802 -31881.562559 999999.999999
*  2019  1  1  5 55  0.00000000
PL64  -2924.341774   -943.246231   6126.720169   2515.549275
VL64 -64651.115287 -21627.219499 -34172.110726 999999.999999
*  2019  1  1  5 55 30.00000000
PL64  -3116.784792  -1007.172910   6020.814733   2515.772449
VL64 -63631.919710 -20987.376004 -36425.029903 999999.999999
*  2019  1  1  5 56  0.00000000
PL64  -3306.059954  -1069.151855   5908.210145   2515.995526
VL64 -62539.389236 -20328.901935 -38637.794671 999999.999999
*  2019  1  1  5 56 30.00000000
PL64  -3491.948897  -1129.128729   5789.030605   2516.218594
VL64 -61374.631288 -19652.835958 -40807.920917 999999.999999
*  2019  1  1  5 57  0.00000000
PL64  -3674.236706  -1187.052333   5663.407700   2516.441576
VL64 -60138.840486 -18960.232603 -42932.968579 999999.999999
*  2019  1  1  5 57 30.00000000
PL64  -3852.712186  -1242.874656   5531.480267   2516.664246
VL64 -58833.298889 -18252.161323 -45010.544947 999999.999999
*  2019  1  1  5 58  0.00000000
PL64  -4027.168114  -1296.550915   5393.394242   2516.887116
VL64 -57459.374475 -17529.704418 -47038.311023 999999.999999
*  2019  1  1  5 58 30.00000000
PL64  -4197.401496  -1348.039588   5249.302496   2517.109867
VL64 -56018.516191 -16793.953158 -49013.983406 999999.999999
*  2019  1  1  5 59  0.00000000
PL64  -4363.213805  -1397.302440   5099.364667   2517.332842
VL64 -54512.254218 -16046.007734 -50935.332682 999999.999999
*  2019  1  1  5 59 30.00000000
PL64  -4524.411228  -1444.304550   4943.746995   2517.555899
VL64 -52942.201158 -15286.977957 -52800.188764 999999.999999
*  2019  1  1  6  0  0.00000000
PL64  -4680.804910  -1489.014340   4782.622136   2517.778499
VL64 -51310.048407 -14517.980277 -54606.445896 999999.999999
*  2019  1  1  6  0 30.00000000
PL64  -4832.211183  -1531.403584   4616.168961   2518.001247
VL64 -49617.563288 -13740.135179 -56352.064354 999999.999999
*  2019  1  1  6  1  0.00000000
PL64  -4978.451796  -1571.447426   4444.572362   2518.224110
VL64 -47866.586855 -12954.565455 -58035.072091 999999.999999
*  2019  1  1  6  1 30.00000000
PL64  -5119.354124  -1609.124376   4268.023044   2518.447081
VL64 -46059.032292 -12162.394847 -59653.566400 999999.999999
*  2019  1  1  6  2  0.00000000
PL64  -5254.751393  -1644.416318   4086.717311   2518.669788
VL64 -44196.883533 -11364.746832 -61205.716297 999999.999999
*  2019  1  1  6  2 30.00000000
PL64  -5384.482881  -1677.308501   3900.856850   2518.892940
VL64 -42282.193068 -10562.743015 -62689.765414 999999.999999
*  2019  1  1  6  3  0.00000000
PL64  -5508.394126  -1707.789538   3710.648502   2519.115596
VL64 -40317.079079  -9757.501330 -64104.034069 999999.999999
*  2019  1  1  6  3 30.00000000
PL64  -5626.337112  -1735.851385   3516.304030   2519.338173
VL64 -38303.723271  -8950.134655 -65446.920656 999999.999999
*  2019  1  1  6  4  0.00000000
PL64  -5738.170465  -1761.489328   3318.039884   2519.560887
VL64 -36244.368870  -8141.749608 -66716.903712 999999.999999
EOF
